{
  "norad_id": 58875,
  "name": "STARLINK-31212",
  "history": [
    {
      "epoch": "2026-03-28T12:03:02.525184",
      "apogee_km": 483.3578239024937,
      "perigee_km": 482.75678328149843,
      "latitude_deg": 11.18421108829911,
      "longitude_deg": 115.70280575985089,
      "semi_major_axis_km": 6861.194303591996,
      "eccentricity": 4.38e-05,
      "inclination_deg": 43.0,
      "raan_deg": 142.3235,
      "arg_perigee_deg": 292.7121,
      "mean_anomaly_deg": 67.3684,
      "mean_motion_rev_day": 15.27577259
    },
    {
      "epoch": "2026-03-29T03:44:37.465152",
      "apogee_km": 483.50465645909117,
      "perigee_km": 482.81441002784686,
      "latitude_deg": -41.43900781967448,
      "longitude_deg": 178.47496128012426,
      "semi_major_axis_km": 6861.296533243469,
      "eccentricity": 5.03e-05,
      "inclination_deg": 43.0018,
      "raan_deg": 138.6327,
      "arg_perigee_deg": 287.4463,
      "mean_anomaly_deg": 72.6334,
      "mean_motion_rev_day": 15.27543119
    }
  ]
}